{"type":"FeatureCollection", "features": [
{"type":"Feature","geometry":{"type":"Polygon","coordinates":[[[23.9869,46.4313],[23.7033,46.4579],[23.6356,46.4032],[23.598,46.4873],[23.3933,46.54],[23.048,46.4702],[23.0014,46.5488],[22.8135,46.5694],[22.6784,46.5235],[22.6781,46.4062],[22.7503,46.3515],[22.9348,46.3269],[22.9832,46.2182],[23.0971,46.1826],[23.0855,46.0711],[23.2359,46.027],[23.3356,45.909],[23.3717,45.6276],[23.5995,45.4727],[23.7051,45.4971],[23.5928,45.6771],[23.6285,45.8078],[23.7327,45.8319],[23.8931,46.044],[24.0088,46.0169],[24.2183,46.1625],[24.2328,46.2599],[23.9869,46.4313]]]},"properties":{"ID_1":1,"NAME_1":"Alba"}},
{"type":"Feature","geometry":{"type":"Polygon","coordinates":[[[22.6781,46.4062],[22.4258,46.3939],[22.0808,46.6372],[21.8828,46.6314],[21.8709,46.6813],[21.578,46.6507],[21.5687,46.6005],[21.4575,46.6673],[21.3157,46.6178],[21.319,46.4512],[21.1821,46.3043],[21.0675,46.2431],[20.7772,46.2762],[20.7069,46.1613],[21.1118,45.9775],[21.3693,45.9908],[21.5174,46.0681],[21.6692,45.9065],[21.7243,45.9775],[21.7708,45.9173],[21.9699,45.9946],[22.2453,45.903],[22.3539,45.973],[22.4388,46.0114],[22.4392,46.2084],[22.6583,46.2351],[22.7503,46.3515],[22.6781,46.4062]]]},"properties":{"ID_1":2,"NAME_1":"Arad"}},
{"type":"Feature","geometry":{"type":"Polygon","coordinates":[[[25.3232,45.3814],[25.1047,45.5855],[24.6865,45.6045],[24.5145,45.5872],[24.5197,45.0413],[24.4397,44.8457],[24.5424,44.8914],[24.5927,44.7501],[24.7043,44.7328],[24.7561,44.3917],[24.8856,44.3829],[25.2365,44.4246],[25.299,44.5566],[25.1699,44.662],[25.2391,44.6951],[25.1985,45.0189],[25.1267,45.0659],[25.1479,45.1989],[25.2305,45.1675],[25.2953,45.2323],[25.3232,45.3814]]]},"properties":{"ID_1":3,"NAME_1":"Arges"}},
{"type":"Feature","geometry":{"type":"Polygon","coordinates":[[[27.2077,46.7702],[26.9643,46.7541],[26.8835,46.8279],[26.7879,46.7172],[26.6774,46.7679],[26.5717,46.6788],[26.3916,46.6507],[26.2673,46.7034],[26.1609,46.6419],[26.0693,46.7125],[25.9796,46.6889],[26.0846,46.5127],[25.999,46.4205],[26.1664,46.3852],[26.1579,46.3154],[26.2945,46.3344],[26.2647,46.2471],[26.4414,46.0393],[27.1038,46.0895],[27.307,46.2057],[27.3517,46.1532],[27.3952,46.1946],[27.4946,46.1595],[27.4507,46.4005],[27.278,46.6256],[27.3282,46.6982],[27.2077,46.7702]]]},"properties":{"ID_1":4,"NAME_1":"Bacau"}},
{"type":"Feature","geometry":{"type":"Polygon","coordinates":[[[22.8135,46.5694],[22.639,46.7998],[22.7804,46.8972],[22.6773,46.9544],[22.7305,47.0074],[22.5199,47.1096],[22.6144,47.335],[22.5329,47.4168],[22.361,47.4288],[22.1824,47.6005],[22.0257,47.5202],[22.0372,47.4138],[21.7924,47.1063],[21.6502,47.0405],[21.6833,46.9672],[21.5207,46.8362],[21.4575,46.6673],[21.5687,46.6005],[21.578,46.6507],[21.8709,46.6813],[21.8828,46.6314],[22.0808,46.6372],[22.4258,46.3939],[22.6781,46.4062],[22.6784,46.5235],[22.8135,46.5694]]]},"properties":{"ID_1":5,"NAME_1":"Bihor"}},
{"type":"Feature","geometry":{"type":"Polygon","coordinates":[[[24.9626,47.597],[24.6541,47.5583],[24.388,47.6085],[24.1338,47.4943],[24.0244,47.3623],[23.921,47.2529],[24.1376,47.0829],[24.1811,46.8051],[24.4535,46.7662],[24.596,46.9456],[24.7259,46.904],[24.8558,47.0962],[25.0649,47.1367],[25.0787,47.341],[25.0009,47.4205],[25.0951,47.5124],[24.9626,47.597]]]},"properties":{"ID_1":6,"NAME_1":"Bistrita-Nasaud"}},
{"type":"Feature","geometry":{"type":"Polygon","coordinates":[[[27.3926,47.5897],[27.2516,47.7197],[27.1678,47.9951],[26.808,48.2546],[26.3361,48.1844],[26.1006,47.979],[26.5378,47.649],[26.5899,47.4672],[26.7027,47.4718],[26.7235,47.5147],[26.9557,47.4971],[27.0436,47.4384],[27.1016,47.5481],[27.2051,47.5192],[27.3926,47.5897]]]},"properties":{"ID_1":7,"NAME_1":"Botosani"}},
{"type":"Feature","geometry":{"type":"Polygon","coordinates":[[[25.3232,45.3814],[25.4531,45.4411],[25.6827,45.5009],[25.8579,45.4271],[25.9234,45.5224],[26.0738,45.5066],[26.0924,45.5172],[25.9729,45.6881],[25.6734,45.7461],[25.5692,45.8367],[25.5829,46.0262],[25.4527,46.1043],[25.3291,46.1781],[25.1747,46.1675],[24.9481,46.0794],[24.7051,45.9406],[24.7769,45.8505],[24.6407,45.7953],[24.6865,45.6045],[25.1047,45.5855],[25.3232,45.3814]]]},"properties":{"ID_1":8,"NAME_1":"Brasov"}},
{"type":"Feature","geometry":{"type":"Polygon","coordinates":[[[28.0319,45.4045],[27.8168,45.3947],[27.5601,45.4886],[27.4354,45.3947],[27.3368,45.2112],[27.1768,45.2496],[27.0681,45.159],[27.1515,45.1708],[27.2832,44.9978],[27.2051,44.7875],[27.722,44.7672],[27.828,44.8204],[27.8827,44.7634],[28.0755,44.8041],[28.1979,45.1402],[28.093,45.1906],[28.1175,45.2581],[27.9962,45.287],[28.0319,45.4045]]]},"properties":{"ID_1":9,"NAME_1":"Braila"}},
{"type":"Feature","geometry":{"type":"Polygon","coordinates":[[[26.0276,44.3922],[26.1549,44.3359],[26.2342,44.4374],[26.105,44.5403],[25.9841,44.4976],[26.0276,44.3922]]]},"properties":{"ID_1":10,"NAME_1":"Bucuresti"}},
{"type":"Feature","geometry":{"type":"Polygon","coordinates":[[[26.0738,45.5066],[26.2517,45.213],[26.3585,45.2135],[26.3782,45.1587],[26.4619,45.1984],[26.4474,45.0737],[26.6015,44.9562],[26.5345,44.9399],[26.607,44.8573],[26.8117,44.7955],[27.0093,44.8247],[27.1355,44.7358],[27.2051,44.7875],[27.2832,44.9978],[27.1515,45.1708],[27.0681,45.159],[27.1768,45.2496],[27.3368,45.2112],[27.4354,45.3947],[27.2717,45.3904],[27.281,45.4547],[27.1161,45.4095],[27.16,45.4655],[26.7496,45.5491],[26.5315,45.6414],[26.3934,45.8028],[26.3279,45.6249],[26.2148,45.6218],[26.0924,45.5172],[26.0738,45.5066]]]},"properties":{"ID_1":11,"NAME_1":"Buzau"}},
{"type":"Feature","geometry":{"type":"Polygon","coordinates":[[[28.02,44.3402],[27.7733,44.3445],[27.5716,44.468],[27.5478,44.5624],[27.5199,44.4973],[27.3472,44.4863],[26.7979,44.5114],[26.6662,44.5957],[26.6007,44.5232],[26.4794,44.5731],[26.4176,44.5214],[26.3618,44.4861],[26.4641,44.4534],[26.2941,44.417],[26.2613,44.295],[26.402,44.2243],[26.3815,44.0433],[27.0436,44.1449],[27.2728,44.1266],[27.9356,44.2501],[28.02,44.3402]]]},"properties":{"ID_1":12,"NAME_1":"Calarasi"}},
{"type":"Feature","geometry":{"type":"Polygon","coordinates":[[[22.6836,45.2506],[22.6788,45.5162],[22.428,45.6693],[22.3227,45.6625],[22.2706,45.5857],[22.0469,45.592],[22.1094,45.5363],[22.0358,45.5019],[21.6015,45.5714],[21.5821,45.5061],[21.4351,45.4712],[21.4541,45.3525],[21.562,45.3166],[21.479,45.1939],[21.5289,45.1382],[21.3618,45.0207],[21.5617,44.8894],[21.3685,44.8648],[21.3938,44.7832],[21.5929,44.7559],[21.6428,44.6597],[22.0175,44.5995],[22.1493,44.5875],[22.2166,44.8174],[22.4198,44.7564],[22.4931,44.974],[22.658,45.108],[22.562,45.1565],[22.6836,45.2506]]]},"properties":{"ID_1":13,"NAME_1":"Caras-Severin"}},
{"type":"Feature","geometry":{"type":"Polygon","coordinates":[[[23.9869,46.4313],[23.9608,46.5147],[24.126,46.7004],[24.0695,46.7348],[24.1811,46.8051],[24.1376,47.0829],[23.921,47.2529],[24.0244,47.3623],[23.8428,47.3402],[23.8108,47.2514],[23.7636,47.2837],[23.4997,47.155],[23.4759,47.0169],[23.3408,46.909],[23.2392,46.9477],[23.096,46.8595],[22.7305,47.0074],[22.6773,46.9544],[22.7804,46.8972],[22.639,46.7998],[22.8135,46.5694],[23.0014,46.5488],[23.048,46.4702],[23.3933,46.54],[23.598,46.4873],[23.6356,46.4032],[23.7033,46.4579],[23.9869,46.4313]]]},"properties":{"ID_1":14,"NAME_1":"Cluj"}},
{"type":"Feature","geometry":{"type":"Polygon","coordinates":[[[27.8827,44.7634],[28.1105,44.4411],[28.02,44.3402],[27.9356,44.2501],[27.2728,44.1266],[27.4008,44.0127],[27.6449,44.0483],[27.7394,43.9539],[27.9184,44.0084],[27.9958,43.8432],[28.1175,43.7975],[28.5797,43.7403],[28.6679,43.9868],[28.6311,44.3121],[28.9943,44.6806],[28.8261,44.6324],[28.4365,44.6748],[28.4149,44.6131],[28.2411,44.7649],[28.0755,44.8041],[27.8827,44.7634]]]},"properties":{"ID_1":15,"NAME_1":"Constanta"}},
{"type":"Feature","geometry":{"type":"Polygon","coordinates":[[[26.2647,46.2471],[26.1743,46.1605],[25.8594,46.1196],[25.7016,46.277],[25.4527,46.1043],[25.5829,46.0262],[25.5692,45.8367],[25.6734,45.7461],[25.9729,45.6881],[26.0924,45.5172],[26.2148,45.6218],[26.3279,45.6249],[26.3934,45.8028],[26.4414,46.0393],[26.2647,46.2471]]]},"properties":{"ID_1":16,"NAME_1":"Covasna"}},
{"type":"Feature","geometry":{"type":"Polygon","coordinates":[[[25.2365,44.4246],[25.3965,44.5184],[25.4817,44.4522],[25.5405,44.5393],[25.8922,44.5415],[25.9934,44.6123],[25.9703,44.721],[25.8747,44.8262],[25.7783,44.8252],[25.7891,44.9532],[25.6894,44.9476],[25.7028,45.0455],[25.536,45.1884],[25.4531,45.4411],[25.3232,45.3814],[25.2953,45.2323],[25.2305,45.1675],[25.1479,45.1989],[25.1267,45.0659],[25.1985,45.0189],[25.2391,44.6951],[25.1699,44.662],[25.299,44.5566],[25.2365,44.4246]]]},"properties":{"ID_1":17,"NAME_1":"Dambovita"}},
{"type":"Feature","geometry":{"type":"Polygon","coordinates":[[[23.7826,44.7137],[23.7208,44.7285],[23.7122,44.6078],[23.4566,44.5699],[23.2013,44.4682],[23.25,44.3854],[23.0956,44.2629],[23.1116,44.1505],[23.0067,44.1585],[22.968,44.0988],[23.0472,44.0583],[22.8801,43.9818],[22.8682,43.8387],[23.0554,43.796],[23.4167,43.853],[24.1141,43.6999],[24.2615,43.9743],[24.1755,44.0066],[24.1912,44.0694],[24.2723,44.1085],[24.0468,44.3686],[23.8834,44.4236],[23.9299,44.5305],[23.7826,44.7137]]]},"properties":{"ID_1":18,"NAME_1":"Dolj"}},
{"type":"Feature","geometry":{"type":"Polygon","coordinates":[[[28.0319,45.4045],[28.2344,45.4635],[28.0911,45.6103],[28.1756,45.6462],[28.1175,46.108],[27.8708,46.1615],[27.7845,46.0952],[27.5928,46.1505],[27.5638,46.0069],[27.5046,46.1397],[27.2278,46.0029],[27.2501,45.8729],[27.5601,45.4886],[27.8168,45.3947],[28.0319,45.4045]]]},"properties":{"ID_1":19,"NAME_1":"Galati"}},
{"type":"Feature","geometry":{"type":"Polygon","coordinates":[[[26.2613,44.295],[26.1508,44.2338],[25.8706,44.3573],[25.8922,44.5415],[25.5405,44.5393],[25.4817,44.4522],[25.4694,44.3257],[25.6972,44.2499],[25.7065,44.1093],[25.6265,44.0862],[25.5867,43.9381],[25.6734,43.6916],[26.1132,43.9725],[26.3815,44.0433],[26.402,44.2243],[26.2613,44.295]]]},"properties":{"ID_1":20,"NAME_1":"Giurgiu"}},
{"type":"Feature","geometry":{"type":"Polygon","coordinates":[[[22.658,45.108],[22.8932,44.9963],[22.943,44.7835],[23.4566,44.5699],[23.7122,44.6078],[23.7208,44.7285],[23.7826,44.7137],[23.848,45.3277],[23.592,45.3533],[22.6836,45.2506],[22.562,45.1565],[22.658,45.108]]]},"properties":{"ID_1":21,"NAME_1":"Gorj"}},
{"type":"Feature","geometry":{"type":"Polygon","coordinates":[[[25.9796,46.6889],[25.868,46.6502],[25.7958,46.7059],[25.839,46.8176],[25.766,46.8852],[25.8572,46.921],[25.6633,47.092],[25.5372,47.0837],[25.4274,47.1843],[25.2484,47.0983],[25.2964,46.6884],[25.024,46.5413],[24.9808,46.3849],[24.8625,46.3555],[24.9451,46.2431],[25.0712,46.2453],[25.1747,46.1675],[25.3291,46.1781],[25.4527,46.1043],[25.7016,46.277],[25.8594,46.1196],[26.1743,46.1605],[26.2647,46.2471],[26.2945,46.3344],[26.1579,46.3154],[26.1664,46.3852],[25.999,46.4205],[26.0846,46.5127],[25.9796,46.6889]]]},"properties":{"ID_1":22,"NAME_1":"Harghita"}},
{"type":"Feature","geometry":{"type":"Polygon","coordinates":[[[22.7503,46.3515],[22.6583,46.2351],[22.4392,46.2084],[22.4388,46.0114],[22.3539,45.973],[22.553,45.7792],[22.428,45.6693],[22.6788,45.5162],[22.6836,45.2506],[23.592,45.3533],[23.5995,45.4727],[23.3717,45.6276],[23.3356,45.909],[23.2359,46.027],[23.0855,46.0711],[23.0971,46.1826],[22.9832,46.2182],[22.9348,46.3269],[22.7503,46.3515]]]},"properties":{"ID_1":23,"NAME_1":"Hunedoara"}},
{"type":"Feature","geometry":{"type":"Polygon","coordinates":[[[26.7027,47.4718],[26.6751,47.3588],[26.495,47.3924],[26.5762,47.3068],[26.5095,47.272],[26.6379,47.0927],[26.904,47.0282],[27.1571,47.0827],[27.2419,47.0122],[27.1236,46.9509],[27.2039,46.8829],[27.601,46.8824],[27.6226,46.9918],[27.77,46.8781],[27.8116,46.9537],[27.7986,46.8606],[27.9095,46.8066],[27.9437,46.8553],[28.116,46.838],[28.0974,46.9765],[27.8068,47.1379],[27.3926,47.5897],[27.2051,47.5192],[27.1016,47.5481],[27.0436,47.4384],[26.9557,47.4971],[26.7235,47.5147],[26.7027,47.4718]]]},"properties":{"ID_1":24,"NAME_1":"Iasi"}},
{"type":"Feature","geometry":{"type":"Polygon","coordinates":[[[27.2051,44.7875],[27.1355,44.7358],[27.0093,44.8247],[26.8117,44.7955],[26.607,44.8573],[26.3034,44.7689],[26.4176,44.5214],[26.4794,44.5731],[26.6007,44.5232],[26.6662,44.5957],[26.7979,44.5114],[27.3472,44.4863],[27.5199,44.4973],[27.5478,44.5624],[27.5716,44.468],[27.7733,44.3445],[28.02,44.3402],[28.1105,44.4411],[27.8827,44.7634],[27.828,44.8204],[27.722,44.7672],[27.2051,44.7875]]]},"properties":{"ID_1":25,"NAME_1":"Ialomita"}},
{"type":"Feature","geometry":{"type":"Polygon","coordinates":[[[26.4176,44.5214],[26.3034,44.7689],[25.9703,44.721],[25.9934,44.6123],[25.8922,44.5415],[25.8706,44.3573],[26.1508,44.2338],[26.2613,44.295],[26.2941,44.417],[26.4641,44.4534],[26.3618,44.4861],[26.4176,44.5214]],[[26.0276,44.3922],[25.9841,44.4976],[26.105,44.5403],[26.2342,44.4374],[26.1549,44.3359],[26.0276,44.3922]]]},"properties":{"ID_1":26,"NAME_1":"Ilfov"}},
{"type":"Feature","geometry":{"type":"Polygon","coordinates":[[[24.9626,47.597],[25.053,47.659],[24.9488,47.7293],[24.5644,47.9687],[24.2299,47.8967],[24.0107,47.9675],[23.8689,47.9323],[23.7736,47.9951],[23.4953,47.968],[23.6415,47.8648],[23.4659,47.7672],[23.2634,47.7976],[23.2318,47.7396],[23.3885,47.6876],[23.259,47.5506],[23.1443,47.6246],[23.0472,47.4876],[22.965,47.4868],[23.0368,47.4158],[23.1053,47.4414],[23.8428,47.3402],[24.0244,47.3623],[24.1338,47.4943],[24.388,47.6085],[24.6541,47.5583],[24.9626,47.597]]]},"properties":{"ID_1":27,"NAME_1":"Maramureș"}},
{"type":"Feature","geometry":{"type":"Polygon","coordinates":[[[22.0175,44.5995],[22.1422,44.4707],[22.4325,44.7104],[22.7078,44.6035],[22.7648,44.5405],[22.5835,44.5496],[22.4659,44.4451],[22.6751,44.2172],[22.968,44.0988],[23.0067,44.1585],[23.1116,44.1505],[23.0956,44.2629],[23.25,44.3854],[23.2013,44.4682],[23.4566,44.5699],[22.943,44.7835],[22.8932,44.9963],[22.658,45.108],[22.4931,44.974],[22.4198,44.7564],[22.2166,44.8174],[22.1493,44.5875],[22.0175,44.5995]]]},"properties":{"ID_1":28,"NAME_1":"Mehedinti"}},
{"type":"Feature","geometry":{"type":"Polygon","coordinates":[[[24.2328,46.2599],[24.6653,46.2815],[24.698,46.0837],[24.9481,46.0794],[25.1747,46.1675],[25.0712,46.2453],[24.9451,46.2431],[24.8625,46.3555],[24.9808,46.3849],[25.024,46.5413],[25.2964,46.6884],[25.2484,47.0983],[25.0649,47.1367],[24.8558,47.0962],[24.7259,46.904],[24.596,46.9456],[24.4535,46.7662],[24.1811,46.8051],[24.0695,46.7348],[24.126,46.7004],[23.9608,46.5147],[23.9869,46.4313],[24.2328,46.2599]]]},"properties":{"ID_1":29,"NAME_1":"Mures"}},
{"type":"Feature","geometry":{"type":"Polygon","coordinates":[[[27.2077,46.7702],[27.2039,46.8829],[27.1236,46.9509],[27.2419,47.0122],[27.1571,47.0827],[26.904,47.0282],[26.6379,47.0927],[26.5095,47.272],[26.4072,47.3405],[25.9253,47.2594],[25.7705,47.3156],[25.8148,47.2617],[25.6633,47.092],[25.8572,46.921],[25.766,46.8852],[25.839,46.8176],[25.7958,46.7059],[25.868,46.6502],[25.9796,46.6889],[26.0693,46.7125],[26.1609,46.6419],[26.2673,46.7034],[26.3916,46.6507],[26.5717,46.6788],[26.6774,46.7679],[26.7879,46.7172],[26.8835,46.8279],[26.9643,46.7541],[27.2077,46.7702]]]},"properties":{"ID_1":30,"NAME_1":"Neamt"}},
{"type":"Feature","geometry":{"type":"Polygon","coordinates":[[[24.4397,44.8457],[24.3917,44.9017],[24.276,44.7692],[24.3266,44.5611],[24.2611,44.6005],[24.2604,44.5493],[24.1569,44.5588],[24.0791,44.4906],[23.9299,44.5305],[23.8834,44.4236],[24.0468,44.3686],[24.2723,44.1085],[24.1912,44.0694],[24.1755,44.0066],[24.2615,43.9743],[24.1141,43.6999],[24.3501,43.6976],[24.5142,43.7629],[24.6586,43.724],[24.7449,43.8224],[24.5934,43.9584],[24.8558,44.0955],[24.7948,44.1916],[24.8856,44.3829],[24.7561,44.3917],[24.7043,44.7328],[24.5927,44.7501],[24.5424,44.8914],[24.4397,44.8457]]]},"properties":{"ID_1":31,"NAME_1":"Olt"}},
{"type":"Feature","geometry":{"type":"Polygon","coordinates":[[[25.4531,45.4411],[25.536,45.1884],[25.7028,45.0455],[25.6894,44.9476],[25.7891,44.9532],[25.7783,44.8252],[25.8747,44.8262],[25.9703,44.721],[26.3034,44.7689],[26.607,44.8573],[26.5345,44.9399],[26.6015,44.9562],[26.4474,45.0737],[26.4619,45.1984],[26.3782,45.1587],[26.3585,45.2135],[26.2517,45.213],[26.0738,45.5066],[25.9234,45.5224],[25.8579,45.4271],[25.6827,45.5009],[25.4531,45.4411]]]},"properties":{"ID_1":32,"NAME_1":"Prahova"}},
{"type":"Feature","geometry":{"type":"Polygon","coordinates":[[[22.7305,47.0074],[23.096,46.8595],[23.2392,46.9477],[23.3408,46.909],[23.4759,47.0169],[23.4997,47.155],[23.7636,47.2837],[23.8108,47.2514],[23.8428,47.3402],[23.1053,47.4414],[23.0889,47.3638],[22.7804,47.4165],[22.6144,47.335],[22.5199,47.1096],[22.7305,47.0074]]]},"properties":{"ID_1":33,"NAME_1":"Salaj"}},
{"type":"Feature","geometry":{"type":"Polygon","coordinates":[[[22.6144,47.335],[22.7804,47.4165],[23.0889,47.3638],[23.1053,47.4414],[23.0368,47.4158],[22.965,47.4868],[23.0472,47.4876],[23.1443,47.6246],[23.259,47.5506],[23.3885,47.6876],[23.2318,47.7396],[23.2634,47.7976],[23.4659,47.7672],[23.6415,47.8648],[23.4953,47.968],[23.1786,48.1201],[23.0926,48.0056],[22.9285,48.0194],[22.6818,47.788],[22.4496,47.8033],[22.2661,47.7315],[22.1824,47.6005],[22.361,47.4288],[22.5329,47.4168],[22.6144,47.335]]]},"properties":{"ID_1":34,"NAME_1":"Satu Mare"}},
{"type":"Feature","geometry":{"type":"Polygon","coordinates":[[[23.7051,45.4971],[24.5145,45.5872],[24.6865,45.6045],[24.6407,45.7953],[24.7769,45.8505],[24.7051,45.9406],[24.9481,46.0794],[24.698,46.0837],[24.6653,46.2815],[24.2328,46.2599],[24.2183,46.1625],[24.0088,46.0169],[23.8931,46.044],[23.7327,45.8319],[23.6285,45.8078],[23.5928,45.6771],[23.7051,45.4971]]]},"properties":{"ID_1":35,"NAME_1":"Sibiu"}},
{"type":"Feature","geometry":{"type":"Polygon","coordinates":[[[25.0649,47.1367],[25.2484,47.0983],[25.4274,47.1843],[25.5372,47.0837],[25.6633,47.092],[25.8148,47.2617],[25.7705,47.3156],[25.9253,47.2594],[26.4072,47.3405],[26.5095,47.272],[26.5762,47.3068],[26.495,47.3924],[26.6751,47.3588],[26.7027,47.4718],[26.5899,47.4672],[26.5378,47.649],[26.1006,47.979],[25.3124,47.9145],[25.1174,47.7551],[24.9488,47.7293],[25.053,47.659],[24.9626,47.597],[25.0951,47.5124],[25.0009,47.4205],[25.0787,47.341],[25.0649,47.1367]]]},"properties":{"ID_1":36,"NAME_1":"Suceava"}},
{"type":"Feature","geometry":{"type":"Polygon","coordinates":[[[24.8856,44.3829],[24.7948,44.1916],[24.8558,44.0955],[24.5934,43.9584],[24.7449,43.8224],[24.6586,43.724],[24.736,43.6853],[25.0002,43.7275],[25.3917,43.6193],[25.6734,43.6916],[25.5867,43.9381],[25.6265,44.0862],[25.7065,44.1093],[25.6972,44.2499],[25.4694,44.3257],[25.4817,44.4522],[25.3965,44.5184],[25.2365,44.4246],[24.8856,44.3829]]]},"properties":{"ID_1":37,"NAME_1":"Teleorman"}},
{"type":"Feature","geometry":{"type":"Polygon","coordinates":[[[20.7069,46.1613],[20.6354,46.1271],[20.5048,46.1899],[20.2663,46.1098],[20.7024,45.7509],[20.8248,45.7755],[20.7727,45.4805],[21.018,45.3249],[21.1854,45.3211],[21.2774,45.23],[21.479,45.1939],[21.562,45.3166],[21.4541,45.3525],[21.4351,45.4712],[21.5821,45.5061],[21.6015,45.5714],[22.0358,45.5019],[22.1094,45.5363],[22.0469,45.592],[22.2706,45.5857],[22.3227,45.6625],[22.428,45.6693],[22.553,45.7792],[22.3539,45.973],[22.2453,45.903],[21.9699,45.9946],[21.7708,45.9173],[21.7243,45.9775],[21.6692,45.9065],[21.5174,46.0681],[21.3693,45.9908],[21.1118,45.9775],[20.7069,46.1613]]]},"properties":{"ID_1":38,"NAME_1":"Timis"}},
{"type":"Feature","geometry":{"type":"Polygon","coordinates":[[[28.0755,44.8041],[28.2411,44.7649],[28.4149,44.6131],[28.4365,44.6748],[28.8261,44.6324],[28.9943,44.6806],[29.1565,44.7765],[29.6042,44.8407],[29.7032,45.1648],[29.6303,45.2067],[29.6526,45.34],[29.3311,45.4479],[28.9504,45.2832],[28.8041,45.3362],[28.7204,45.2245],[28.3516,45.3201],[28.2344,45.4635],[28.0319,45.4045],[27.9962,45.287],[28.1175,45.2581],[28.093,45.1906],[28.1979,45.1402],[28.0755,44.8041]]]},"properties":{"ID_1":39,"NAME_1":"Tulcea"}},
{"type":"Feature","geometry":{"type":"Polygon","coordinates":[[[23.5995,45.4727],[23.592,45.3533],[23.848,45.3277],[23.7826,44.7137],[23.9299,44.5305],[24.0791,44.4906],[24.1569,44.5588],[24.2604,44.5493],[24.2611,44.6005],[24.3266,44.5611],[24.276,44.7692],[24.3917,44.9017],[24.4397,44.8457],[24.5197,45.0413],[24.5145,45.5872],[23.7051,45.4971],[23.5995,45.4727]]]},"properties":{"ID_1":40,"NAME_1":"Vâlcea"}},
{"type":"Feature","geometry":{"type":"Polygon","coordinates":[[[27.4946,46.1595],[27.5046,46.1397],[27.5638,46.0069],[27.5928,46.1505],[27.7845,46.0952],[27.8708,46.1615],[28.1175,46.108],[28.1134,46.2333],[28.2601,46.4273],[28.2377,46.6653],[28.116,46.838],[27.9437,46.8553],[27.9095,46.8066],[27.7986,46.8606],[27.8116,46.9537],[27.77,46.8781],[27.6226,46.9918],[27.601,46.8824],[27.2039,46.8829],[27.2077,46.7702],[27.3282,46.6982],[27.278,46.6256],[27.4507,46.4005],[27.4946,46.1595]]]},"properties":{"ID_1":41,"NAME_1":"Vaslui"}},
{"type":"Feature","geometry":{"type":"Polygon","coordinates":[[[26.4414,46.0393],[26.3934,45.8028],[26.5315,45.6414],[26.7496,45.5491],[27.16,45.4655],[27.1161,45.4095],[27.281,45.4547],[27.2717,45.3904],[27.4354,45.3947],[27.5601,45.4886],[27.2501,45.8729],[27.2278,46.0029],[27.5046,46.1397],[27.4946,46.1595],[27.3952,46.1946],[27.3517,46.1532],[27.307,46.2057],[27.1038,46.0895],[26.4414,46.0393]]]},"properties":{"ID_1":42,"NAME_1":"Vrancea"}}
]}